ORBCOMM FM05            
1 25117U 97084F   25021.28808188  .00004453  00000+0  13044-2 0  9996
2 25117  45.0160 352.9266 0001931 259.7875 100.2758 14.44997671419351
ORBCOMM FM06            
1 25118U 97084G   25021.32302154  .00004447  00000+0  12980-2 0  9995
2 25118  45.0151 352.6739 0001823 291.0085 215.0842 14.45170240420274
ORBCOMM FM07            
1 25119U 97084H   25021.23591289  .00004699  00000+0  13718-2 0  9994
2 25119  45.0146 353.8279 0002057 236.3771 123.6884 14.45081341420256
ORBCOMM FM03            
1 25158U 98007B   25021.37661557  .00003527  00000+0  12962-2 0  9993
2 25158 107.9684 194.1243 0044738 148.5139 211.8691 14.33871574402994
ORBCOMM FM04            
1 25159U 98007C   25021.38705611  .00003166  00000+0  11650-2 0  9997
2 25159 107.9670 197.2661 0040307 146.1626 214.2097 14.34131526403176
ORBCOMM FM17            
1 25413U 98046A   25020.93201045  .00002043  00000+0  76691-3 0  9995
2 25413  44.9930 232.3213 0002499 178.1590 181.9267 14.34541658382027
ORBCOMM FM18            
1 25414U 98046B   25021.57698618  .00003661  00000+0  12502-2 0  9990
2 25414  44.9914 150.4866 0005870 247.6036 112.4190 14.37789363383145
ORBCOMM FM19            
1 25415U 98046C   25021.58622543  .00003685  00000+0  12628-2 0  9991
2 25415  44.9925 152.2126 0004802 238.7132 186.2826 14.37605865383104
